<?xml version="1.0" encoding="UTF-8"?>
<ndm xmlns:xsi="http://www.w3.org/2001/XMLSchema-instance" xsi:noNamespaceSchemaLocation="https://sanaregistry.org/r/ndmxml_unqualified/ndmxml-2.0.0-master-2.0.xsd">
<omm id="CCSDS_OMM_VERS" version="2.0">
<header><CREATION_DATE/><ORIGINATOR/></header><body><segment><metadata><OBJECT_NAME>KUIPER-00232</OBJECT_NAME><OBJECT_ID>2025-301R</OBJECT_ID><CENTER_NAME>EARTH</CENTER_NAME><REF_FRAME>TEME</REF_FRAME><TIME_SYSTEM>UTC</TIME_SYSTEM><MEAN_ELEMENT_THEORY>SGP4</MEAN_ELEMENT_THEORY></metadata><data><meanElements><EPOCH>2026-01-05T07:32:43.226016</EPOCH><MEAN_MOTION>15.37021095</MEAN_MOTION><ECCENTRICITY>.0002324</ECCENTRICITY><INCLINATION>51.8738</INCLINATION><RA_OF_ASC_NODE>11.2540</RA_OF_ASC_NODE><ARG_OF_PERICENTER>72.7663</ARG_OF_PERICENTER><MEAN_ANOMALY>287.3577</MEAN_ANOMALY></meanElements><tleParameters><EPHEMERIS_TYPE>0</EPHEMERIS_TYPE><CLASSIFICATION_TYPE>U</CLASSIFICATION_TYPE><NORAD_CAT_ID>67148</NORAD_CAT_ID><ELEMENT_SET_NO>999</ELEMENT_SET_NO><REV_AT_EPOCH>399</REV_AT_EPOCH><BSTAR>.12652986E-2</BSTAR><MEAN_MOTION_DOT>.46442E-3</MEAN_MOTION_DOT><MEAN_MOTION_DDOT>0</MEAN_MOTION_DDOT></tleParameters></data></segment></body></omm>
<omm id="CCSDS_OMM_VERS" version="2.0">
<header><CREATION_DATE/><ORIGINATOR/></header><body><segment><metadata><OBJECT_NAME>KUIPER-00241</OBJECT_NAME><OBJECT_ID>2025-301S</OBJECT_ID><CENTER_NAME>EARTH</CENTER_NAME><REF_FRAME>TEME</REF_FRAME><TIME_SYSTEM>UTC</TIME_SYSTEM><MEAN_ELEMENT_THEORY>SGP4</MEAN_ELEMENT_THEORY></metadata><data><meanElements><EPOCH>2026-01-05T07:41:18.564000</EPOCH><MEAN_MOTION>15.36620631</MEAN_MOTION><ECCENTRICITY>.00028617</ECCENTRICITY><INCLINATION>51.8744</INCLINATION><RA_OF_ASC_NODE>11.2906</RA_OF_ASC_NODE><ARG_OF_PERICENTER>118.0282</ARG_OF_PERICENTER><MEAN_ANOMALY>242.0994</MEAN_ANOMALY></meanElements><tleParameters><EPHEMERIS_TYPE>0</EPHEMERIS_TYPE><CLASSIFICATION_TYPE>U</CLASSIFICATION_TYPE><NORAD_CAT_ID>67149</NORAD_CAT_ID><ELEMENT_SET_NO>999</ELEMENT_SET_NO><REV_AT_EPOCH>432</REV_AT_EPOCH><BSTAR>.11314626E-2</BSTAR><MEAN_MOTION_DOT>.40923E-3</MEAN_MOTION_DOT><MEAN_MOTION_DDOT>0</MEAN_MOTION_DDOT></tleParameters></data></segment></body></omm>
<omm id="CCSDS_OMM_VERS" version="2.0">
<header><CREATION_DATE/><ORIGINATOR/></header><body><segment><metadata><OBJECT_NAME>KUIPER-00245</OBJECT_NAME><OBJECT_ID>2025-301T</OBJECT_ID><CENTER_NAME>EARTH</CENTER_NAME><REF_FRAME>TEME</REF_FRAME><TIME_SYSTEM>UTC</TIME_SYSTEM><MEAN_ELEMENT_THEORY>SGP4</MEAN_ELEMENT_THEORY></metadata><data><meanElements><EPOCH>2026-01-05T06:00:02.000160</EPOCH><MEAN_MOTION>15.34469297</MEAN_MOTION><ECCENTRICITY>.00067665</ECCENTRICITY><INCLINATION>51.8742</INCLINATION><RA_OF_ASC_NODE>11.7315</RA_OF_ASC_NODE><ARG_OF_PERICENTER>150.6630</ARG_OF_PERICENTER><MEAN_ANOMALY>128.1915</MEAN_ANOMALY></meanElements><tleParameters><EPHEMERIS_TYPE>0</EPHEMERIS_TYPE><CLASSIFICATION_TYPE>U</CLASSIFICATION_TYPE><NORAD_CAT_ID>67150</NORAD_CAT_ID><ELEMENT_SET_NO>999</ELEMENT_SET_NO><REV_AT_EPOCH>346</REV_AT_EPOCH><BSTAR>-.31718133E-1</BSTAR><MEAN_MOTION_DOT>-.994209E-2</MEAN_MOTION_DOT><MEAN_MOTION_DDOT>0</MEAN_MOTION_DDOT></tleParameters></data></segment></body></omm>
<omm id="CCSDS_OMM_VERS" version="2.0">
<header><CREATION_DATE/><ORIGINATOR/></header><body><segment><metadata><OBJECT_NAME>KUIPER-00246</OBJECT_NAME><OBJECT_ID>2025-301U</OBJECT_ID><CENTER_NAME>EARTH</CENTER_NAME><REF_FRAME>TEME</REF_FRAME><TIME_SYSTEM>UTC</TIME_SYSTEM><MEAN_ELEMENT_THEORY>SGP4</MEAN_ELEMENT_THEORY></metadata><data><meanElements><EPOCH>2026-01-05T06:13:04.516320</EPOCH><MEAN_MOTION>15.36364145</MEAN_MOTION><ECCENTRICITY>.00041292</ECCENTRICITY><INCLINATION>51.8740</INCLINATION><RA_OF_ASC_NODE>11.6307</RA_OF_ASC_NODE><ARG_OF_PERICENTER>140.1065</ARG_OF_PERICENTER><MEAN_ANOMALY>220.0225</MEAN_ANOMALY></meanElements><tleParameters><EPHEMERIS_TYPE>0</EPHEMERIS_TYPE><CLASSIFICATION_TYPE>U</CLASSIFICATION_TYPE><NORAD_CAT_ID>67151</NORAD_CAT_ID><ELEMENT_SET_NO>999</ELEMENT_SET_NO><REV_AT_EPOCH>400</REV_AT_EPOCH><BSTAR>.89929364E-3</BSTAR><MEAN_MOTION_DOT>.32143E-3</MEAN_MOTION_DOT><MEAN_MOTION_DDOT>0</MEAN_MOTION_DDOT></tleParameters></data></segment></body></omm>
<omm id="CCSDS_OMM_VERS" version="2.0">
<header><CREATION_DATE/><ORIGINATOR/></header><body><segment><metadata><OBJECT_NAME>KUIPER-00247</OBJECT_NAME><OBJECT_ID>2025-301V</OBJECT_ID><CENTER_NAME>EARTH</CENTER_NAME><REF_FRAME>TEME</REF_FRAME><TIME_SYSTEM>UTC</TIME_SYSTEM><MEAN_ELEMENT_THEORY>SGP4</MEAN_ELEMENT_THEORY></metadata><data><meanElements><EPOCH>2026-01-05T06:49:46.167168</EPOCH><MEAN_MOTION>15.34295808</MEAN_MOTION><ECCENTRICITY>.00112525</ECCENTRICITY><INCLINATION>51.8641</INCLINATION><RA_OF_ASC_NODE>11.7894</RA_OF_ASC_NODE><ARG_OF_PERICENTER>183.9753</ARG_OF_PERICENTER><MEAN_ANOMALY>176.1145</MEAN_ANOMALY></meanElements><tleParameters><EPHEMERIS_TYPE>0</EPHEMERIS_TYPE><CLASSIFICATION_TYPE>U</CLASSIFICATION_TYPE><NORAD_CAT_ID>67152</NORAD_CAT_ID><ELEMENT_SET_NO>999</ELEMENT_SET_NO><REV_AT_EPOCH>398</REV_AT_EPOCH><BSTAR>.8169642E-3</BSTAR><MEAN_MOTION_DOT>.27309E-3</MEAN_MOTION_DOT><MEAN_MOTION_DDOT>0</MEAN_MOTION_DDOT></tleParameters></data></segment></body></omm>
<omm id="CCSDS_OMM_VERS" version="2.0">
<header><CREATION_DATE/><ORIGINATOR/></header><body><segment><metadata><OBJECT_NAME>KUIPER-00248</OBJECT_NAME><OBJECT_ID>2025-301W</OBJECT_ID><CENTER_NAME>EARTH</CENTER_NAME><REF_FRAME>TEME</REF_FRAME><TIME_SYSTEM>UTC</TIME_SYSTEM><MEAN_ELEMENT_THEORY>SGP4</MEAN_ELEMENT_THEORY></metadata><data><meanElements><EPOCH>2026-01-05T06:36:34.174656</EPOCH><MEAN_MOTION>15.35269238</MEAN_MOTION><ECCENTRICITY>.00089207</ECCENTRICITY><INCLINATION>51.8691</INCLINATION><RA_OF_ASC_NODE>11.7349</RA_OF_ASC_NODE><ARG_OF_PERICENTER>171.0302</ARG_OF_PERICENTER><MEAN_ANOMALY>189.0845</MEAN_ANOMALY></meanElements><tleParameters><EPHEMERIS_TYPE>0</EPHEMERIS_TYPE><CLASSIFICATION_TYPE>U</CLASSIFICATION_TYPE><NORAD_CAT_ID>67153</NORAD_CAT_ID><ELEMENT_SET_NO>999</ELEMENT_SET_NO><REV_AT_EPOCH>415</REV_AT_EPOCH><BSTAR>.10378577E-2</BSTAR><MEAN_MOTION_DOT>.35916E-3</MEAN_MOTION_DOT><MEAN_MOTION_DDOT>0</MEAN_MOTION_DDOT></tleParameters></data></segment></body></omm>
<omm id="CCSDS_OMM_VERS" version="2.0">
<header><CREATION_DATE/><ORIGINATOR/></header><body><segment><metadata><OBJECT_NAME>KUIPER-00249</OBJECT_NAME><OBJECT_ID>2025-301X</OBJECT_ID><CENTER_NAME>EARTH</CENTER_NAME><REF_FRAME>TEME</REF_FRAME><TIME_SYSTEM>UTC</TIME_SYSTEM><MEAN_ELEMENT_THEORY>SGP4</MEAN_ELEMENT_THEORY></metadata><data><meanElements><EPOCH>2026-01-05T06:33:23.799168</EPOCH><MEAN_MOTION>15.35398055</MEAN_MOTION><ECCENTRICITY>.00083601</ECCENTRICITY><INCLINATION>51.8666</INCLINATION><RA_OF_ASC_NODE>11.7190</RA_OF_ASC_NODE><ARG_OF_PERICENTER>167.9021</ARG_OF_PERICENTER><MEAN_ANOMALY>192.2167</MEAN_ANOMALY></meanElements><tleParameters><EPHEMERIS_TYPE>0</EPHEMERIS_TYPE><CLASSIFICATION_TYPE>U</CLASSIFICATION_TYPE><NORAD_CAT_ID>67154</NORAD_CAT_ID><ELEMENT_SET_NO>999</ELEMENT_SET_NO><REV_AT_EPOCH>398</REV_AT_EPOCH><BSTAR>.81003376E-3</BSTAR><MEAN_MOTION_DOT>.2803E-3</MEAN_MOTION_DOT><MEAN_MOTION_DDOT>0</MEAN_MOTION_DDOT></tleParameters></data></segment></body></omm>
<omm id="CCSDS_OMM_VERS" version="2.0">
<header><CREATION_DATE/><ORIGINATOR/></header><body><segment><metadata><OBJECT_NAME>KUIPER-00250</OBJECT_NAME><OBJECT_ID>2025-301Y</OBJECT_ID><CENTER_NAME>EARTH</CENTER_NAME><REF_FRAME>TEME</REF_FRAME><TIME_SYSTEM>UTC</TIME_SYSTEM><MEAN_ELEMENT_THEORY>SGP4</MEAN_ELEMENT_THEORY></metadata><data><meanElements><EPOCH>2026-01-05T06:23:47.471424</EPOCH><MEAN_MOTION>15.35926199</MEAN_MOTION><ECCENTRICITY>.00065585</ECCENTRICITY><INCLINATION>51.8725</INCLINATION><RA_OF_ASC_NODE>11.6799</RA_OF_ASC_NODE><ARG_OF_PERICENTER>157.0515</ARG_OF_PERICENTER><MEAN_ANOMALY>203.0765</MEAN_ANOMALY></meanElements><tleParameters><EPHEMERIS_TYPE>0</EPHEMERIS_TYPE><CLASSIFICATION_TYPE>U</CLASSIFICATION_TYPE><NORAD_CAT_ID>67155</NORAD_CAT_ID><ELEMENT_SET_NO>999</ELEMENT_SET_NO><REV_AT_EPOCH>401</REV_AT_EPOCH><BSTAR>.65727219E-3</BSTAR><MEAN_MOTION_DOT>.23038E-3</MEAN_MOTION_DOT><MEAN_MOTION_DDOT>0</MEAN_MOTION_DDOT></tleParameters></data></segment></body></omm>

</ndm>
