KUIPER-00232            
1 67148U 25301R   26005.31438919  .00046442  00000+0  12653-2 0  9996
2 67148  51.8738  11.2540 0002324  72.7663 287.3577 15.37021095  3998
KUIPER-00241            
1 67149U 25301S   26005.32035375  .00040923  00000+0  11315-2 0  9999
2 67149  51.8744  11.2906 0002861 118.0282 242.0994 15.36620631  4328
KUIPER-00245            
1 67150U 25301T   26005.25002315 -.00994209  00000+0 -31718-1 0  9996
2 67150  51.8742  11.7315 0006766 150.6630 128.1915 15.34469297  3462
KUIPER-00246            
1 67151U 25301U   26005.25908005  .00032143  00000+0  89929-3 0  9995
2 67151  51.8740  11.6307 0004129 140.1065 220.0225 15.36364145  4003
KUIPER-00247            
1 67152U 25301V   26005.28456212  .00027309  00000+0  81696-3 0  9998
2 67152  51.8641  11.7894 0011252 183.9753 176.1145 15.34295808  3985
KUIPER-00248            
1 67153U 25301W   26005.27539554  .00035916  00000+0  10379-2 0  9991
2 67153  51.8691  11.7349 0008920 171.0302 189.0845 15.35269238  4151
KUIPER-00249            
1 67154U 25301X   26005.27319212  .00028030  00000+0  81003-3 0  9991
2 67154  51.8666  11.7190 0008360 167.9021 192.2167 15.35398055  3981
KUIPER-00250            
1 67155U 25301Y   26005.26652166  .00023038  00000+0  65727-3 0  9997
2 67155  51.8725  11.6799 0006558 157.0515 203.0765 15.35926199  4013
